ARIANE 5 R/B            
1 28499U 04049H   25308.04232098  .00001039  00000+0  12153-3 0  9992
2 28499  98.2512 106.9448 0085531  38.9496 321.7837 14.84892264127148
CZ-2D R/B               
1 28738U 05024B   25308.16276356  .00027830  00000+0  48619-3 0  9993
2 28738  97.3665 314.6668 0008019 112.5117 247.6985 15.50604832120273
ALOS (DAICHI)           
1 28931U 06002A   25308.15305242  .00001887  00000+0  32811-3 0  9992
2 28931  98.1027 259.9305 0001480  51.9105 308.2233 14.69290138 55047
H-2A R/B                
1 28932U 06002B   25308.12236523  .00010130  00000+0  54913-3 0  9993
2 28932  98.2292  79.7576 0055018 308.5428  51.0877 15.13500840 75421
RESURS-DK 1             
1 29228U 06021A   25308.12886492  .00003325  00000+0  20015-3 0  9993
2 29228  69.9339 201.5942 0007340 290.0958  69.9417 15.11842032 68540
CZ-4B R/B               
1 29507U 06046C   25308.07976576  .00005571  00000+0  29530-3 0  9993
2 29507  97.5799 348.3258 0033978 345.1478  14.8752 15.15295697 41019
CZ-2C R/B               
1 31114U 07010B   25308.04002714  .00000147  00000+0  87054-4 0  9993
2 31114  98.3955  62.6434 0057971 300.1027  59.4412 14.20185752961880
COSMO-SKYMED 1          
1 31598U 07023A   25308.18335225  .00003860  00000+0  35531-3 0  9991
2 31598  97.8850 133.3385 0001112  90.5819 269.5529 14.95336269996132
COSMOS 2428             
1 31792U 07029A   25307.72870578 -.00000240  00000+0 -10301-3 0  9996
2 31792  70.9363 107.7802 0001829 101.7534 258.3792 14.12891620946300
SL-16 R/B               
1 31793U 07029B   25308.09079498  .00000024  00000+0  37152-4 0  9992
2 31793  70.9744  76.3959 0002266 258.4918 274.0538 14.14803378947602
KORONAS-FOTON           
1 33504U 09003A   25307.32756018  .00013129  00000+0  32867-3 0  9990
2 33504  82.4336  46.8949 0010666 248.7956 111.2150 15.39892354926279
CZ-2C R/B               
1 37731U 11030B   25307.73695045  .00001827  00000+0  23853-3 0  9993
2 37731  97.8344 262.7270 0054252  41.5511   5.4498 14.80685918771453
