CCSDS_OMM_VERS = 2.0
CREATION_DATE  = 
ORIGINATOR     = 

OBJECT_NAME    = ARIANE 5 R/B
OBJECT_ID      = 2004-049H
CENTER_NAME    = EARTH
REF_FRAME      = TEME
TIME_SYSTEM    = UTC
MEAN_ELEMENT_THEORY = SGP/SGP4

EPOCH          = 2025-11-04T01:00:56.532672
MEAN_MOTION    = 14.84892264
ECCENTRICITY   = .0085531
INCLINATION    = 98.2512
RA_OF_ASC_NODE = 106.9448
ARG_OF_PERICENTER = 38.9496
MEAN_ANOMALY   = 321.7837

EPHEMERIS_TYPE = 0
CLASSIFICATION_TYPE = U
NORAD_CAT_ID   = 28499
ELEMENT_SET_NO = 999
REV_AT_EPOCH   = 12714
BSTAR          = .12153E-3
MEAN_MOTION_DOT = .1039E-4
MEAN_MOTION_DDOT = 0

CCSDS_OMM_VERS = 2.0
CREATION_DATE  = 
ORIGINATOR     = 

OBJECT_NAME    = CZ-2D R/B
OBJECT_ID      = 2005-024B
CENTER_NAME    = EARTH
REF_FRAME      = TEME
TIME_SYSTEM    = UTC
MEAN_ELEMENT_THEORY = SGP/SGP4

EPOCH          = 2025-11-04T03:54:22.771584
MEAN_MOTION    = 15.50604832
ECCENTRICITY   = .0008019
INCLINATION    = 97.3665
RA_OF_ASC_NODE = 314.6668
ARG_OF_PERICENTER = 112.5117
MEAN_ANOMALY   = 247.6985

EPHEMERIS_TYPE = 0
CLASSIFICATION_TYPE = U
NORAD_CAT_ID   = 28738
ELEMENT_SET_NO = 999
REV_AT_EPOCH   = 12027
BSTAR          = .48619E-3
MEAN_MOTION_DOT = .2783E-3
MEAN_MOTION_DDOT = 0

CCSDS_OMM_VERS = 2.0
CREATION_DATE  = 
ORIGINATOR     = 

OBJECT_NAME    = ALOS (DAICHI)
OBJECT_ID      = 2006-002A
CENTER_NAME    = EARTH
REF_FRAME      = TEME
TIME_SYSTEM    = UTC
MEAN_ELEMENT_THEORY = SGP/SGP4

EPOCH          = 2025-11-04T03:40:23.729088
MEAN_MOTION    = 14.69290138
ECCENTRICITY   = .000148
INCLINATION    = 98.1027
RA_OF_ASC_NODE = 259.9305
ARG_OF_PERICENTER = 51.9105
MEAN_ANOMALY   = 308.2233

EPHEMERIS_TYPE = 0
CLASSIFICATION_TYPE = U
NORAD_CAT_ID   = 28931
ELEMENT_SET_NO = 999
REV_AT_EPOCH   = 5504
BSTAR          = .32811E-3
MEAN_MOTION_DOT = .1887E-4
MEAN_MOTION_DDOT = 0

CCSDS_OMM_VERS = 2.0
CREATION_DATE  = 
ORIGINATOR     = 

OBJECT_NAME    = H-2A R/B
OBJECT_ID      = 2006-002B
CENTER_NAME    = EARTH
REF_FRAME      = TEME
TIME_SYSTEM    = UTC
MEAN_ELEMENT_THEORY = SGP/SGP4

EPOCH          = 2025-11-04T02:56:12.355872
MEAN_MOTION    = 15.13500840
ECCENTRICITY   = .0055018
INCLINATION    = 98.2292
RA_OF_ASC_NODE = 79.7576
ARG_OF_PERICENTER = 308.5428
MEAN_ANOMALY   = 51.0877

EPHEMERIS_TYPE = 0
CLASSIFICATION_TYPE = U
NORAD_CAT_ID   = 28932
ELEMENT_SET_NO = 999
REV_AT_EPOCH   = 7542
BSTAR          = .54913E-3
MEAN_MOTION_DOT = .1013E-3
MEAN_MOTION_DDOT = 0

CCSDS_OMM_VERS = 2.0
CREATION_DATE  = 
ORIGINATOR     = 

OBJECT_NAME    = RESURS-DK 1
OBJECT_ID      = 2006-021A
CENTER_NAME    = EARTH
REF_FRAME      = TEME
TIME_SYSTEM    = UTC
MEAN_ELEMENT_THEORY = SGP/SGP4

EPOCH          = 2025-11-04T03:05:33.929088
MEAN_MOTION    = 15.11842032
ECCENTRICITY   = .000734
INCLINATION    = 69.9339
RA_OF_ASC_NODE = 201.5942
ARG_OF_PERICENTER = 290.0958
MEAN_ANOMALY   = 69.9417

EPHEMERIS_TYPE = 0
CLASSIFICATION_TYPE = U
NORAD_CAT_ID   = 29228
ELEMENT_SET_NO = 999
REV_AT_EPOCH   = 6854
BSTAR          = .20015E-3
MEAN_MOTION_DOT = .3325E-4
MEAN_MOTION_DDOT = 0

CCSDS_OMM_VERS = 2.0
CREATION_DATE  = 
ORIGINATOR     = 

OBJECT_NAME    = CZ-4B R/B
OBJECT_ID      = 2006-046C
CENTER_NAME    = EARTH
REF_FRAME      = TEME
TIME_SYSTEM    = UTC
MEAN_ELEMENT_THEORY = SGP/SGP4

EPOCH          = 2025-11-04T01:54:51.761664
MEAN_MOTION    = 15.15295697
ECCENTRICITY   = .0033978
INCLINATION    = 97.5799
RA_OF_ASC_NODE = 348.3258
ARG_OF_PERICENTER = 345.1478
MEAN_ANOMALY   = 14.8752

EPHEMERIS_TYPE = 0
CLASSIFICATION_TYPE = U
NORAD_CAT_ID   = 29507
ELEMENT_SET_NO = 999
REV_AT_EPOCH   = 4101
BSTAR          = .2953E-3
MEAN_MOTION_DOT = .5571E-4
MEAN_MOTION_DDOT = 0

CCSDS_OMM_VERS = 2.0
CREATION_DATE  = 
ORIGINATOR     = 

OBJECT_NAME    = CZ-2C R/B
OBJECT_ID      = 2007-010B
CENTER_NAME    = EARTH
REF_FRAME      = TEME
TIME_SYSTEM    = UTC
MEAN_ELEMENT_THEORY = SGP/SGP4

EPOCH          = 2025-11-04T00:57:38.344896
MEAN_MOTION    = 14.20185752
ECCENTRICITY   = .0057971
INCLINATION    = 98.3955
RA_OF_ASC_NODE = 62.6434
ARG_OF_PERICENTER = 300.1027
MEAN_ANOMALY   = 59.4412

EPHEMERIS_TYPE = 0
CLASSIFICATION_TYPE = U
NORAD_CAT_ID   = 31114
ELEMENT_SET_NO = 999
REV_AT_EPOCH   = 96188
BSTAR          = .87054E-4
MEAN_MOTION_DOT = .147E-5
MEAN_MOTION_DDOT = 0

CCSDS_OMM_VERS = 2.0
CREATION_DATE  = 
ORIGINATOR     = 

OBJECT_NAME    = COSMO-SKYMED 1
OBJECT_ID      = 2007-023A
CENTER_NAME    = EARTH
REF_FRAME      = TEME
TIME_SYSTEM    = UTC
MEAN_ELEMENT_THEORY = SGP/SGP4

EPOCH          = 2025-11-04T04:24:01.634400
MEAN_MOTION    = 14.95336269
ECCENTRICITY   = .0001112
INCLINATION    = 97.8850
RA_OF_ASC_NODE = 133.3385
ARG_OF_PERICENTER = 90.5819
MEAN_ANOMALY   = 269.5529

EPHEMERIS_TYPE = 0
CLASSIFICATION_TYPE = U
NORAD_CAT_ID   = 31598
ELEMENT_SET_NO = 999
REV_AT_EPOCH   = 99613
BSTAR          = .35531E-3
MEAN_MOTION_DOT = .386E-4
MEAN_MOTION_DDOT = 0

CCSDS_OMM_VERS = 2.0
CREATION_DATE  = 
ORIGINATOR     = 

OBJECT_NAME    = COSMOS 2428
OBJECT_ID      = 2007-029A
CENTER_NAME    = EARTH
REF_FRAME      = TEME
TIME_SYSTEM    = UTC
MEAN_ELEMENT_THEORY = SGP/SGP4

EPOCH          = 2025-11-03T17:29:20.179392
MEAN_MOTION    = 14.12891620
ECCENTRICITY   = .00018296
INCLINATION    = 70.9363
RA_OF_ASC_NODE = 107.7802
ARG_OF_PERICENTER = 101.7534
MEAN_ANOMALY   = 258.3792

EPHEMERIS_TYPE = 0
CLASSIFICATION_TYPE = U
NORAD_CAT_ID   = 31792
ELEMENT_SET_NO = 999
REV_AT_EPOCH   = 94630
BSTAR          = -.10300657E-3
MEAN_MOTION_DOT = -.24E-5
MEAN_MOTION_DDOT = 0

CCSDS_OMM_VERS = 2.0
CREATION_DATE  = 
ORIGINATOR     = 

OBJECT_NAME    = SL-16 R/B
OBJECT_ID      = 2007-029B
CENTER_NAME    = EARTH
REF_FRAME      = TEME
TIME_SYSTEM    = UTC
MEAN_ELEMENT_THEORY = SGP/SGP4

EPOCH          = 2025-11-04T02:10:44.686272
MEAN_MOTION    = 14.14803378
ECCENTRICITY   = .0002266
INCLINATION    = 70.9744
RA_OF_ASC_NODE = 76.3959
ARG_OF_PERICENTER = 258.4918
MEAN_ANOMALY   = 274.0538

EPHEMERIS_TYPE = 0
CLASSIFICATION_TYPE = U
NORAD_CAT_ID   = 31793
ELEMENT_SET_NO = 999
REV_AT_EPOCH   = 94760
BSTAR          = .37152E-4
MEAN_MOTION_DOT = .24E-6
MEAN_MOTION_DDOT = 0

CCSDS_OMM_VERS = 2.0
CREATION_DATE  = 
ORIGINATOR     = 

OBJECT_NAME    = KORONAS-FOTON
OBJECT_ID      = 2009-003A
CENTER_NAME    = EARTH
REF_FRAME      = TEME
TIME_SYSTEM    = UTC
MEAN_ELEMENT_THEORY = SGP/SGP4

EPOCH          = 2025-11-03T07:51:41.199552
MEAN_MOTION    = 15.39892354
ECCENTRICITY   = .00106663
INCLINATION    = 82.4336
RA_OF_ASC_NODE = 46.8949
ARG_OF_PERICENTER = 248.7956
MEAN_ANOMALY   = 111.2150

EPHEMERIS_TYPE = 0
CLASSIFICATION_TYPE = U
NORAD_CAT_ID   = 33504
ELEMENT_SET_NO = 999
REV_AT_EPOCH   = 92627
BSTAR          = .32867242E-3
MEAN_MOTION_DOT = .13129E-3
MEAN_MOTION_DDOT = 0

CCSDS_OMM_VERS = 2.0
CREATION_DATE  = 
ORIGINATOR     = 

OBJECT_NAME    = CZ-2C R/B
OBJECT_ID      = 2011-030B
CENTER_NAME    = EARTH
REF_FRAME      = TEME
TIME_SYSTEM    = UTC
MEAN_ELEMENT_THEORY = SGP/SGP4

EPOCH          = 2025-11-03T17:41:12.518880
MEAN_MOTION    = 14.80685918
ECCENTRICITY   = .0054252
INCLINATION    = 97.8344
RA_OF_ASC_NODE = 262.7270
ARG_OF_PERICENTER = 41.5511
MEAN_ANOMALY   = 5.4498

EPHEMERIS_TYPE = 0
CLASSIFICATION_TYPE = U
NORAD_CAT_ID   = 37731
ELEMENT_SET_NO = 999
REV_AT_EPOCH   = 77145
BSTAR          = .23853489E-3
MEAN_MOTION_DOT = .1827E-4
MEAN_MOTION_DDOT = 0

